{
  "type": "FeatureCollection",
  "features": [
    {
      "type": "Feature",
      "properties": {
        "norad_id": 38091,
        "name": "BEIDOU-2 G5 (C05)",
        "group": "gnss",
        "lat": -0.6987227363544198,
        "lon": 57.219875762292034,
        "alt_km": 35812.49861328194,
        "timestamp": "2025-12-06T18:50:10.409975+00:00",
        "meta_object_name": "BEIDOU-2 G5 (C05)",
        "meta_object_id": "2012-008A",
        "meta_epoch": "2025-12-06T05:22:59.674656",
        "meta_mean_motion": 1.00273238,
        "meta_eccentricity": 0.00124834,
        "meta_inclination": 3.0923,
        "meta_ra_of_asc_node": 70.7281,
        "meta_arg_of_pericenter": 226.1461,
        "meta_mean_anomaly": 277.8607,
        "meta_ephemeris_type": 0,
        "meta_classification_type": "U",
        "meta_norad_cat_id": 38091,
        "meta_element_set_no": 999,
        "meta_rev_at_epoch": 5043,
        "meta_bstar": 0,
        "meta_mean_motion_dot": 6.3e-07,
        "meta_mean_motion_ddot": 0,
        "tle_line1": "1 38091U 12008A   25340.22430179  .00000063  00000+0  00000+0 0  9991",
        "tle_line2": "2 38091   3.0923  70.7281 0012483 226.1461 277.8607  1.00273238 50430"
      },
      "geometry": {
        "type": "Point",
        "coordinates": [
          57.219875762292034,
          -0.6987227363544198
        ]
      }
    },
    {
      "type": "Feature",
      "properties": {
        "norad_id": 38250,
        "name": "BEIDOU-2 M3 (C11)",
        "group": "gnss",
        "lat": -47.98799458436665,
        "lon": -179.985636164772,
        "alt_km": 21474.55628255165,
        "timestamp": "2025-12-06T18:50:10.409987+00:00",
        "meta_object_name": "BEIDOU-2 M3 (C11)",
        "meta_object_id": "2012-018A",
        "meta_epoch": "2025-12-05T21:12:32.531040",
        "meta_mean_motion": 1.86229708,
        "meta_eccentricity": 0.00244284,
        "meta_inclination": 55.926,
        "meta_ra_of_asc_node": 311.388,
        "meta_arg_of_pericenter": 273.8805,
        "meta_mean_anomaly": 85.8231,
        "meta_ephemeris_type": 0,
        "meta_classification_type": "U",
        "meta_norad_cat_id": 38250,
        "meta_element_set_no": 999,
        "meta_rev_at_epoch": 9234,
        "meta_bstar": 0,
        "meta_mean_motion_dot": -7e-07,
        "meta_mean_motion_ddot": 0,
        "tle_line1": "1 38250U 12018A   25339.88370985 -.00000070  00000+0  00000+0 0  9996",
        "tle_line2": "2 38250  55.9260 311.3880 0024428 273.8805  85.8231  1.86229708 92342"
      },
      "geometry": {
        "type": "Point",
        "coordinates": [
          -179.985636164772,
          -47.98799458436665
        ]
      }
    },
    {
      "type": "Feature",
      "properties": {
        "norad_id": 38251,
        "name": "BEIDOU-2 M4 (C12)",
        "group": "gnss",
        "lat": -51.20635115807778,
        "lon": -107.07209231742291,
        "alt_km": 21491.334266588554,
        "timestamp": "2025-12-06T18:50:10.409998+00:00",
        "meta_object_name": "BEIDOU-2 M4 (C12)",
        "meta_object_id": "2012-018B",
        "meta_epoch": "2025-12-05T06:41:27.869856",
        "meta_mean_motion": 1.86229397,
        "meta_eccentricity": 0.00155808,
        "meta_inclination": 55.8281,
        "meta_ra_of_asc_node": 310.638,
        "meta_arg_of_pericenter": 277.012,
        "meta_mean_anomaly": 82.7935,
        "meta_ephemeris_type": 0,
        "meta_classification_type": "U",
        "meta_norad_cat_id": 38251,
        "meta_element_set_no": 999,
        "meta_rev_at_epoch": 9233,
        "meta_bstar": 0,
        "meta_mean_motion_dot": -6.9e-07,
        "meta_mean_motion_ddot": 0,
        "tle_line1": "1 38251U 12018B   25339.27879479 -.00000069  00000+0  00000+0 0  9990",
        "tle_line2": "2 38251  55.8281 310.6380 0015580 277.0120  82.7935  1.86229397 92337"
      },
      "geometry": {
        "type": "Point",
        "coordinates": [
          -107.07209231742291,
          -51.20635115807778
        ]
      }
    },
    {
      "type": "Feature",
      "properties": {
        "norad_id": 38652,
        "name": "SES-5 (EGNOS/PRN 136)",
        "group": "gnss",
        "lat": 0.06042853147932546,
        "lon": 3.347742500211223,
        "alt_km": 35789.3923903957,
        "timestamp": "2025-12-06T18:50:10.410014+00:00",
        "meta_object_name": "SES-5 (EGNOS/PRN 136)",
        "meta_object_id": "2012-036A",
        "meta_epoch": "2025-12-06T03:25:00.412032",
        "meta_mean_motion": 1.00270176,
        "meta_eccentricity": 0.00021688,
        "meta_inclination": 0.057,
        "meta_ra_of_asc_node": 305.1672,
        "meta_arg_of_pericenter": 309.688,
        "meta_mean_anomaly": 236.5583,
        "meta_ephemeris_type": 0,
        "meta_classification_type": "U",
        "meta_norad_cat_id": 38652,
        "meta_element_set_no": 999,
        "meta_rev_at_epoch": 4253,
        "meta_bstar": 0,
        "meta_mean_motion_dot": 4.2e-07,
        "meta_mean_motion_ddot": 0,
        "tle_line1": "1 38652U 12036A   25340.14236588  .00000042  00000+0  00000+0 0  9991",
        "tle_line2": "2 38652   0.0570 305.1672 0002168 309.6880 236.5583  1.00270176 42533"
      },
      "geometry": {
        "type": "Point",
        "coordinates": [
          3.347742500211223,
          0.06042853147932546
        ]
      }
    },
    {
      "type": "Feature",
      "properties": {
        "norad_id": 38775,
        "name": "BEIDOU-2 M6 (C14)",
        "group": "gnss",
        "lat": 43.92630850058166,
        "lon": -150.51862807583663,
        "alt_km": 21545.420288973743,
        "timestamp": "2025-12-06T18:50:10.410026+00:00",
        "meta_object_name": "BEIDOU-2 M6 (C14)",
        "meta_object_id": "2012-050B",
        "meta_epoch": "2025-12-06T01:31:40.746720",
        "meta_mean_motion": 1.86230698,
        "meta_eccentricity": 0.00109594,
        "meta_inclination": 56.3729,
        "meta_ra_of_asc_node": 69.2891,
        "meta_arg_of_pericenter": 345.8795,
        "meta_mean_anomaly": 14.1028,
        "meta_ephemeris_type": 0,
        "meta_classification_type": "U",
        "meta_norad_cat_id": 38775,
        "meta_element_set_no": 999,
        "meta_rev_at_epoch": 8971,
        "meta_bstar": 0,
        "meta_mean_motion_dot": -4.7e-07,
        "meta_mean_motion_ddot": 0,
        "tle_line1": "1 38775U 12050B   25340.06366605 -.00000047  00000+0  00000+0 0  9994",
        "tle_line2": "2 38775  56.3729  69.2891 0010959 345.8795  14.1028  1.86230698 89718"
      },
      "geometry": {
        "type": "Point",
        "coordinates": [
          -150.51862807583663,
          43.92630850058166
        ]
      }
    },
    {
      "type": "Feature",
      "properties": {
        "norad_id": 38779,
        "name": "GSAT-10 (GAGAN/PRN 128)",
        "group": "gnss",
        "lat": 0.017436144069434886,
        "lon": 81.30008479113128,
        "alt_km": 35779.36171439551,
        "timestamp": "2025-12-06T18:50:10.410038+00:00",
        "meta_object_name": "GSAT-10 (GAGAN/PRN 128)",
        "meta_object_id": "2012-051B",
        "meta_epoch": "2025-12-06T03:47:13.284960",
        "meta_mean_motion": 1.00273472,
        "meta_eccentricity": 0.00022565,
        "meta_inclination": 0.0249,
        "meta_ra_of_asc_node": 263.1967,
        "meta_arg_of_pericenter": 227.0163,
        "meta_mean_anomaly": 84.7573,
        "meta_ephemeris_type": 0,
        "meta_classification_type": "U",
        "meta_norad_cat_id": 38779,
        "meta_element_set_no": 999,
        "meta_rev_at_epoch": 4816,
        "meta_bstar": 0,
        "meta_mean_motion_dot": -1.57e-06,
        "meta_mean_motion_ddot": 0,
        "tle_line1": "1 38779U 12051B   25340.15779265 -.00000157  00000+0  00000+0 0  9991",
        "tle_line2": "2 38779   0.0249 263.1967 0002256 227.0163  84.7573  1.00273472 48160"
      },
      "geometry": {
        "type": "Point",
        "coordinates": [
          81.30008479113128,
          0.017436144069434886
        ]
      }
    },
    {
      "type": "Feature",
      "properties": {
        "norad_id": 38833,
        "name": "GPS BIIF-3  (PRN 24)",
        "group": "gnss",
        "lat": -44.21065578680443,
        "lon": 105.4882498048446,
        "alt_km": 20442.70625361893,
        "timestamp": "2025-12-06T18:50:10.410050+00:00",
        "meta_object_name": "GPS BIIF-3  (PRN 24)",
        "meta_object_id": "2012-053A",
        "meta_epoch": "2025-12-05T20:54:28.108224",
        "meta_mean_motion": 2.00564871,
        "meta_eccentricity": 0.01756137,
        "meta_inclination": 53.5564,
        "meta_ra_of_asc_node": 151.5199,
        "meta_arg_of_pericenter": 63.8922,
        "meta_mean_anomaly": 297.9105,
        "meta_ephemeris_type": 0,
        "meta_classification_type": "U",
        "meta_norad_cat_id": 38833,
        "meta_element_set_no": 999,
        "meta_rev_at_epoch": 9556,
        "meta_bstar": 0,
        "meta_mean_motion_dot": 6.1e-07,
        "meta_mean_motion_ddot": 0,
        "tle_line1": "1 38833U 12053A   25339.87115866  .00000061  00000+0  00000+0 0  9995",
        "tle_line2": "2 38833  53.5564 151.5199 0175613  63.8922 297.9105  2.00564871 95560"
      },
      "geometry": {
        "type": "Point",
        "coordinates": [
          105.4882498048446,
          -44.21065578680443
        ]
      }
    }
  ]
}